{
  "type": "FeatureCollection",
  "features": [
    {
      "type": "Feature",
      "properties": {
        "norad_id": 41890,
        "name": "CYGFM07",
        "group": "weather",
        "lat": 8.601707911219606,
        "lon": -161.01773491876878,
        "alt_km": 409.557135301784,
        "timestamp": "2025-12-11T05:00:25.954740+00:00",
        "meta_object_name": "CYGFM07",
        "meta_object_id": "2016-078G",
        "meta_epoch": "2025-12-10T12:50:25.836000",
        "meta_mean_motion": 15.49858644,
        "meta_eccentricity": 0.0009682,
        "meta_inclination": 34.9483,
        "meta_ra_of_asc_node": 35.9073,
        "meta_arg_of_pericenter": 196.6766,
        "meta_mean_anomaly": 163.3639,
        "meta_ephemeris_type": 0,
        "meta_classification_type": "U",
        "meta_norad_cat_id": 41890,
        "meta_element_set_no": 999,
        "meta_rev_at_epoch": 49961,
        "meta_bstar": 0.00053788,
        "meta_mean_motion_dot": 0.0003107,
        "meta_mean_motion_ddot": 0,
        "tle_line1": "1 41890U 16078G   25344.53502125  .00031070  00000+0  53788-3 0  9999",
        "tle_line2": "2 41890  34.9483  35.9073 0009682 196.6766 163.3639 15.49858644499612"
      },
      "geometry": {
        "type": "Point",
        "coordinates": [
          -161.01773491876878,
          8.601707911219606
        ]
      }
    },
    {
      "type": "Feature",
      "properties": {
        "norad_id": 41891,
        "name": "CYGFM03",
        "group": "weather",
        "lat": 0.04368642755310455,
        "lon": 33.47204328184442,
        "alt_km": 422.1819001163649,
        "timestamp": "2025-12-11T05:00:25.954750+00:00",
        "meta_object_name": "CYGFM03",
        "meta_object_id": "2016-078H",
        "meta_epoch": "2025-12-10T13:32:49.185888",
        "meta_mean_motion": 15.49761353,
        "meta_eccentricity": 0.0008968,
        "meta_inclination": 34.9436,
        "meta_ra_of_asc_node": 37.6317,
        "meta_arg_of_pericenter": 184.0085,
        "meta_mean_anomaly": 176.0566,
        "meta_ephemeris_type": 0,
        "meta_classification_type": "U",
        "meta_norad_cat_id": 41891,
        "meta_element_set_no": 999,
        "meta_rev_at_epoch": 49959,
        "meta_bstar": 0.00052874,
        "meta_mean_motion_dot": 0.00030426,
        "meta_mean_motion_ddot": 0,
        "tle_line1": "1 41891U 16078H   25344.56445817  .00030426  00000+0  52874-3 0  9996",
        "tle_line2": "2 41891  34.9436  37.6317 0008968 184.0085 176.0566 15.49761353499599"
      },
      "geometry": {
        "type": "Point",
        "coordinates": [
          33.47204328184442,
          0.04368642755310455
        ]
      }
    },
    {
      "type": "Feature",
      "properties": {
        "norad_id": 43010,
        "name": "FENGYUN 3D",
        "group": "weather",
        "lat": 71.0967951591919,
        "lon": 159.02820692766082,
        "alt_km": 819.4339669430783,
        "timestamp": "2025-12-11T05:00:25.954761+00:00",
        "meta_object_name": "FENGYUN 3D",
        "meta_object_id": "2017-072A",
        "meta_epoch": "2025-12-10T21:44:26.475936",
        "meta_mean_motion": 14.1968216,
        "meta_eccentricity": 8.536e-05,
        "meta_inclination": 98.9893,
        "meta_ra_of_asc_node": 311.1883,
        "meta_arg_of_pericenter": 189.1616,
        "meta_mean_anomaly": 170.9544,
        "meta_ephemeris_type": 0,
        "meta_classification_type": "U",
        "meta_norad_cat_id": 43010,
        "meta_element_set_no": 999,
        "meta_rev_at_epoch": 41827,
        "meta_bstar": 3.4176777e-05,
        "meta_mean_motion_dot": 2.6e-07,
        "meta_mean_motion_ddot": 0,
        "tle_line1": "1 43010U 17072A   25344.90586199  .00000026  00000+0  34177-4 0  9993",
        "tle_line2": "2 43010  98.9893 311.1883 0000853 189.1616 170.9544 14.19682160418279"
      },
      "geometry": {
        "type": "Point",
        "coordinates": [
          159.02820692766082,
          71.0967951591919
        ]
      }
    },
    {
      "type": "Feature",
      "properties": {
        "norad_id": 43013,
        "name": "NOAA 20 (JPSS-1)",
        "group": "weather",
        "lat": -76.68985630280379,
        "lon": 60.8499054666466,
        "alt_km": 835.7973493048712,
        "timestamp": "2025-12-11T05:00:25.954773+00:00",
        "meta_object_name": "NOAA 20 (JPSS-1)",
        "meta_object_id": "2017-073A",
        "meta_epoch": "2025-12-10T21:01:11.576352",
        "meta_mean_motion": 14.19524941,
        "meta_eccentricity": 0.00021522,
        "meta_inclination": 98.7596,
        "meta_ra_of_asc_node": 281.193,
        "meta_arg_of_pericenter": 89.8521,
        "meta_mean_anomaly": 270.2902,
        "meta_ephemeris_type": 0,
        "meta_classification_type": "U",
        "meta_norad_cat_id": 43013,
        "meta_element_set_no": 999,
        "meta_rev_at_epoch": 41775,
        "meta_bstar": 0.0001046428,
        "meta_mean_motion_dot": 1.77e-06,
        "meta_mean_motion_ddot": 0,
        "tle_line1": "1 43013U 17073A   25344.87582843  .00000177  00000+0  10464-3 0  9994",
        "tle_line2": "2 43013  98.7596 281.1930 0002152  89.8521 270.2902 14.19524941417750"
      },
      "geometry": {
        "type": "Point",
        "coordinates": [
          60.8499054666466,
          -76.68985630280379
        ]
      }
    },
    {
      "type": "Feature",
      "properties": {
        "norad_id": 43226,
        "name": "GOES 17",
        "group": "weather",
        "lat": -0.16152009096664904,
        "lon": 65.80248492023094,
        "alt_km": 35798.394755051675,
        "timestamp": "2025-12-11T05:00:25.954786+00:00",
        "meta_object_name": "GOES 17",
        "meta_object_id": "2018-022A",
        "meta_epoch": "2025-12-10T19:57:54.165888",
        "meta_mean_motion": 1.00271611,
        "meta_eccentricity": 0.00033451,
        "meta_inclination": 0.4552,
        "meta_ra_of_asc_node": 89.1343,
        "meta_arg_of_pericenter": 187.0598,
        "meta_mean_anomaly": 13.5882,
        "meta_ephemeris_type": 0,
        "meta_classification_type": "U",
        "meta_norad_cat_id": 43226,
        "meta_element_set_no": 999,
        "meta_rev_at_epoch": 2853,
        "meta_bstar": 0,
        "meta_mean_motion_dot": -1.78e-06,
        "meta_mean_motion_ddot": 0,
        "tle_line1": "1 43226U 18022A   25344.83187692 -.00000178  00000+0  00000+0 0  9997",
        "tle_line2": "2 43226   0.4552  89.1343 0003345 187.0598  13.5882  1.00271611 28530"
      },
      "geometry": {
        "type": "Point",
        "coordinates": [
          65.80248492023094,
          -0.16152009096664904
        ]
      }
    },
    {
      "type": "Feature",
      "properties": {
        "norad_id": 43491,
        "name": "FENGYUN 2H",
        "group": "weather",
        "lat": 1.1269467979214338,
        "lon": -125.34471820011447,
        "alt_km": 35774.11265852204,
        "timestamp": "2025-12-11T05:00:25.954799+00:00",
        "meta_object_name": "FENGYUN 2H",
        "meta_object_id": "2018-050A",
        "meta_epoch": "2025-12-10T20:46:04.550880",
        "meta_mean_motion": 1.00271047,
        "meta_eccentricity": 0.00029161,
        "meta_inclination": 2.5463,
        "meta_ra_of_asc_node": 81.3471,
        "meta_arg_of_pericenter": 165.8148,
        "meta_mean_anomaly": 223.5516,
        "meta_ephemeris_type": 0,
        "meta_classification_type": "U",
        "meta_norad_cat_id": 43491,
        "meta_element_set_no": 999,
        "meta_rev_at_epoch": 2755,
        "meta_bstar": 0,
        "meta_mean_motion_dot": -1.25e-06,
        "meta_mean_motion_ddot": 0,
        "tle_line1": "1 43491U 18050A   25344.86533045 -.00000125  00000+0  00000+0 0  9994",
        "tle_line2": "2 43491   2.5463  81.3471 0002916 165.8148 223.5516  1.00271047 27553"
      },
      "geometry": {
        "type": "Point",
        "coordinates": [
          -125.34471820011447,
          1.1269467979214338
        ]
      }
    },
    {
      "type": "Feature",
      "properties": {
        "norad_id": 43689,
        "name": "METOP-C",
        "group": "weather",
        "lat": 29.67364899161601,
        "lon": 38.0009938450371,
        "alt_km": 817.8395778901458,
        "timestamp": "2025-12-11T05:00:25.954811+00:00",
        "meta_object_name": "METOP-C",
        "meta_object_id": "2018-087A",
        "meta_epoch": "2025-12-10T22:06:32.353056",
        "meta_mean_motion": 14.21483024,
        "meta_eccentricity": 0.00013643,
        "meta_inclination": 98.693,
        "meta_ra_of_asc_node": 42.719,
        "meta_arg_of_pericenter": 41.1277,
        "meta_mean_anomaly": 319.0003,
        "meta_ephemeris_type": 0,
        "meta_classification_type": "U",
        "meta_norad_cat_id": 43689,
        "meta_element_set_no": 999,
        "meta_rev_at_epoch": 36808,
        "meta_bstar": 0.00011366209,
        "meta_mean_motion_dot": 2.05e-06,
        "meta_mean_motion_ddot": 0,
        "tle_line1": "1 43689U 18087A   25344.92120779  .00000205  00000+0  11366-3 0  9995",
        "tle_line2": "2 43689  98.6930  42.7190 0001364  41.1277 319.0003 14.21483024368086"
      },
      "geometry": {
        "type": "Point",
        "coordinates": [
          38.0009938450371,
          29.67364899161601
        ]
      }
    }
  ]
}